<?xml version="1.0" encoding="UTF-8"?>
<gpx version="1.1" creator="make_fixtures.py" xmlns="http://www.topografix.com/GPX/1/1">
 <trk>
  <name>Sweepers</name>
  <trkseg>
   <trkpt lat="46.5000000" lon="11.0000000"><ele>0.0</ele><time>2024-06-12T04:45:00.000Z</time></trkpt>
   <trkpt lat="46.5000343" lon="11.0000499"><ele>0.0</ele><time>2024-06-12T04:45:00.200Z</time></trkpt>
   <trkpt lat="46.5000687" lon="11.0000998"><ele>0.0</ele><time>2024-06-12T04:45:00.400Z</time></trkpt>
   <trkpt lat="46.5001030" lon="11.0001497"><ele>0.0</ele><time>2024-06-12T04:45:00.600Z</time></trkpt>
   <trkpt lat="46.5001374" lon="11.0001995"><ele>0.0</ele><time>2024-06-12T04:45:00.800Z</time></trkpt>
   <trkpt lat="46.5001717" lon="11.0002494"><ele>0.0</ele><time>2024-06-12T04:45:01.000Z</time></trkpt>
   <trkpt lat="46.5002060" lon="11.0002993"><ele>0.0</ele><time>2024-06-12T04:45:01.200Z</time></trkpt>
   <trkpt lat="46.5002404" lon="11.0003492"><ele>0.0</ele><time>2024-06-12T04:45:01.400Z</time></trkpt>
   <trkpt lat="46.5002747" lon="11.0003991"><ele>0.0</ele><time>2024-06-12T04:45:01.600Z</time></trkpt>
   <trkpt lat="46.5003091" lon="11.0004490"><ele>0.0</ele><time>2024-06-12T04:45:01.800Z</time></trkpt>
   <trkpt lat="46.5003434" lon="11.0004989"><ele>0.0</ele><time>2024-06-12T04:45:02.1000Z</time></trkpt>
   <trkpt lat="46.5003777" lon="11.0005487"><ele>0.0</ele><time>2024-06-12T04:45:02.200Z</time></trkpt>
   <trkpt lat="46.5004121" lon="11.0005986"><ele>0.0</ele><time>2024-06-12T04:45:02.400Z</time></trkpt>
   <trkpt lat="46.5004464" lon="11.0006485"><ele>0.0</ele><time>2024-06-12T04:45:02.600Z</time></trkpt>
   <trkpt lat="46.5004808" lon="11.0006984"><ele>0.0</ele><time>2024-06-12T04:45:02.800Z</time></trkpt>
   <trkpt lat="46.5005151" lon="11.0007483"><ele>0.0</ele><time>2024-06-12T04:45:03.000Z</time></trkpt>
   <trkpt lat="46.5005494" lon="11.0007982"><ele>0.0</ele><time>2024-06-12T04:45:03.200Z</time></trkpt>
   <trkpt lat="46.5005838" lon="11.0008481"><ele>0.0</ele><time>2024-06-12T04:45:03.400Z</time></trkpt>
   <trkpt lat="46.5006181" lon="11.0008980"><ele>0.0</ele><time>2024-06-12T04:45:03.600Z</time></trkpt>
   <trkpt lat="46.5006524" lon="11.0009478"><ele>0.0</ele><time>2024-06-12T04:45:03.800Z</time></trkpt>
   <trkpt lat="46.5006868" lon="11.0009977"><ele>0.0</ele><time>2024-06-12T04:45:04.000Z</time></trkpt>
   <trkpt lat="46.5007211" lon="11.0010476"><ele>0.0</ele><time>2024-06-12T04:45:04.200Z</time></trkpt>
   <trkpt lat="46.5007555" lon="11.0010975"><ele>0.0</ele><time>2024-06-12T04:45:04.400Z</time></trkpt>
   <trkpt lat="46.5007898" lon="11.0011474"><ele>0.0</ele><time>2024-06-12T04:45:04.600Z</time></trkpt>
   <trkpt lat="46.5008241" lon="11.0011973"><ele>0.0</ele><time>2024-06-12T04:45:04.800Z</time></trkpt>
   <trkpt lat="46.5008585" lon="11.0012472"><ele>0.0</ele><time>2024-06-12T04:45:05.000Z</time></trkpt>
   <trkpt lat="46.5008928" lon="11.0012970"><ele>0.0</ele><time>2024-06-12T04:45:05.200Z</time></trkpt>
   <trkpt lat="46.5009272" lon="11.0013469"><ele>0.0</ele><time>2024-06-12T04:45:05.400Z</time></trkpt>
   <trkpt lat="46.5009615" lon="11.0013968"><ele>0.0</ele><time>2024-06-12T04:45:05.600Z</time></trkpt>
   <trkpt lat="46.5009958" lon="11.0014467"><ele>0.0</ele><time>2024-06-12T04:45:05.800Z</time></trkpt>
   <trkpt lat="46.5010302" lon="11.0014966"><ele>0.0</ele><time>2024-06-12T04:45:06.000Z</time></trkpt>
   <trkpt lat="46.5010645" lon="11.0015465"><ele>0.0</ele><time>2024-06-12T04:45:06.200Z</time></trkpt>
   <trkpt lat="46.5010989" lon="11.0015964"><ele>0.0</ele><time>2024-06-12T04:45:06.400Z</time></trkpt>
   <trkpt lat="46.5011332" lon="11.0016462"><ele>0.0</ele><time>2024-06-12T04:45:06.600Z</time></trkpt>
   <trkpt lat="46.5011675" lon="11.0016961"><ele>0.0</ele><time>2024-06-12T04:45:06.800Z</time></trkpt>
   <trkpt lat="46.5012019" lon="11.0017460"><ele>0.0</ele><time>2024-06-12T04:45:07.000Z</time></trkpt>
   <trkpt lat="46.5012362" lon="11.0017959"><ele>0.0</ele><time>2024-06-12T04:45:07.200Z</time></trkpt>
   <trkpt lat="46.5012706" lon="11.0018458"><ele>0.0</ele><time>2024-06-12T04:45:07.400Z</time></trkpt>
   <trkpt lat="46.5012718" lon="11.0018476"><ele>0.0</ele><time>2024-06-12T04:45:07.600Z</time></trkpt>
   <trkpt lat="46.5013054" lon="11.0018980"><ele>0.0</ele><time>2024-06-12T04:45:07.800Z</time></trkpt>
   <trkpt lat="46.5013380" lon="11.0019497"><ele>0.0</ele><time>2024-06-12T04:45:08.000Z</time></trkpt>
   <trkpt lat="46.5013695" lon="11.0020028"><ele>0.0</ele><time>2024-06-12T04:45:08.200Z</time></trkpt>
   <trkpt lat="46.5013999" lon="11.0020573"><ele>0.0</ele><time>2024-06-12T04:45:08.400Z</time></trkpt>
   <trkpt lat="46.5014291" lon="11.0021131"><ele>0.0</ele><time>2024-06-12T04:45:08.600Z</time></trkpt>
   <trkpt lat="46.5014572" lon="11.0021701"><ele>0.0</ele><time>2024-06-12T04:45:08.800Z</time></trkpt>
   <trkpt lat="46.5014842" lon="11.0022283"><ele>0.0</ele><time>2024-06-12T04:45:09.000Z</time></trkpt>
   <trkpt lat="46.5015099" lon="11.0022876"><ele>0.0</ele><time>2024-06-12T04:45:09.200Z</time></trkpt>
   <trkpt lat="46.5015343" lon="11.0023480"><ele>0.0</ele><time>2024-06-12T04:45:09.400Z</time></trkpt>
   <trkpt lat="46.5015576" lon="11.0024095"><ele>0.0</ele><time>2024-06-12T04:45:09.600Z</time></trkpt>
   <trkpt lat="46.5015795" lon="11.0024719"><ele>0.0</ele><time>2024-06-12T04:45:09.800Z</time></trkpt>
   <trkpt lat="46.5016002" lon="11.0025353"><ele>0.0</ele><time>2024-06-12T04:45:10.1000Z</time></trkpt>
   <trkpt lat="46.5016196" lon="11.0025995"><ele>0.0</ele><time>2024-06-12T04:45:10.200Z</time></trkpt>
   <trkpt lat="46.5016376" lon="11.0026645"><ele>0.0</ele><time>2024-06-12T04:45:10.400Z</time></trkpt>
   <trkpt lat="46.5016543" lon="11.0027303"><ele>0.0</ele><time>2024-06-12T04:45:10.600Z</time></trkpt>
   <trkpt lat="46.5016696" lon="11.0027968"><ele>0.0</ele><time>2024-06-12T04:45:10.800Z</time></trkpt>
   <trkpt lat="46.5016836" lon="11.0028639"><ele>0.0</ele><time>2024-06-12T04:45:11.1000Z</time></trkpt>
   <trkpt lat="46.5016962" lon="11.0029316"><ele>0.0</ele><time>2024-06-12T04:45:11.200Z</time></trkpt>
   <trkpt lat="46.5017073" lon="11.0029998"><ele>0.0</ele><time>2024-06-12T04:45:11.400Z</time></trkpt>
   <trkpt lat="46.5017171" lon="11.0030685"><ele>0.0</ele><time>2024-06-12T04:45:11.600Z</time></trkpt>
   <trkpt lat="46.5017255" lon="11.0031375"><ele>0.0</ele><time>2024-06-12T04:45:11.800Z</time></trkpt>
   <trkpt lat="46.5017324" lon="11.0032069"><ele>0.0</ele><time>2024-06-12T04:45:12.1000Z</time></trkpt>
   <trkpt lat="46.5017379" lon="11.0032766"><ele>0.0</ele><time>2024-06-12T04:45:12.200Z</time></trkpt>
   <trkpt lat="46.5017420" lon="11.0033464"><ele>0.0</ele><time>2024-06-12T04:45:12.400Z</time></trkpt>
   <trkpt lat="46.5017447" lon="11.0034164"><ele>0.0</ele><time>2024-06-12T04:45:12.600Z</time></trkpt>
   <trkpt lat="46.5017459" lon="11.0034865"><ele>0.0</ele><time>2024-06-12T04:45:12.800Z</time></trkpt>
   <trkpt lat="46.5017457" lon="11.0035566"><ele>0.0</ele><time>2024-06-12T04:45:13.1000Z</time></trkpt>
   <trkpt lat="46.5017440" lon="11.0036267"><ele>0.0</ele><time>2024-06-12T04:45:13.200Z</time></trkpt>
   <trkpt lat="46.5017409" lon="11.0036967"><ele>0.0</ele><time>2024-06-12T04:45:13.400Z</time></trkpt>
   <trkpt lat="46.5017364" lon="11.0037665"><ele>0.0</ele><time>2024-06-12T04:45:13.600Z</time></trkpt>
   <trkpt lat="46.5017304" lon="11.0038361"><ele>0.0</ele><time>2024-06-12T04:45:13.800Z</time></trkpt>
   <trkpt lat="46.5017230" lon="11.0039053"><ele>0.0</ele><time>2024-06-12T04:45:14.1000Z</time></trkpt>
   <trkpt lat="46.5017214" lon="11.0039190"><ele>0.0</ele><time>2024-06-12T04:45:14.200Z</time></trkpt>
   <trkpt lat="46.5017130" lon="11.0039884"><ele>0.0</ele><time>2024-06-12T04:45:14.400Z</time></trkpt>
   <trkpt lat="46.5017045" lon="11.0040579"><ele>0.0</ele><time>2024-06-12T04:45:14.600Z</time></trkpt>
   <trkpt lat="46.5016961" lon="11.0041274"><ele>0.0</ele><time>2024-06-12T04:45:14.800Z</time></trkpt>
   <trkpt lat="46.5016877" lon="11.0041969"><ele>0.0</ele><time>2024-06-12T04:45:15.1000Z</time></trkpt>
   <trkpt lat="46.5016792" lon="11.0042663"><ele>0.0</ele><time>2024-06-12T04:45:15.200Z</time></trkpt>
   <trkpt lat="46.5016708" lon="11.0043358"><ele>0.0</ele><time>2024-06-12T04:45:15.400Z</time></trkpt>
   <trkpt lat="46.5016624" lon="11.0044053"><ele>0.0</ele><time>2024-06-12T04:45:15.600Z</time></trkpt>
   <trkpt lat="46.5016539" lon="11.0044748"><ele>0.0</ele><time>2024-06-12T04:45:15.800Z</time></trkpt>
   <trkpt lat="46.5016455" lon="11.0045443"><ele>0.0</ele><time>2024-06-12T04:45:16.1000Z</time></trkpt>
   <trkpt lat="46.5016371" lon="11.0046137"><ele>0.0</ele><time>2024-06-12T04:45:16.200Z</time></trkpt>
   <trkpt lat="46.5016286" lon="11.0046832"><ele>0.0</ele><time>2024-06-12T04:45:16.400Z</time></trkpt>
   <trkpt lat="46.5016202" lon="11.0047527"><ele>0.0</ele><time>2024-06-12T04:45:16.600Z</time></trkpt>
   <trkpt lat="46.5016118" lon="11.0048222"><ele>0.0</ele><time>2024-06-12T04:45:16.800Z</time></trkpt>
   <trkpt lat="46.5016033" lon="11.0048916"><ele>0.0</ele><time>2024-06-12T04:45:17.1000Z</time></trkpt>
   <trkpt lat="46.5015965" lon="11.0049483"><ele>0.0</ele><time>2024-06-12T04:45:17.200Z</time></trkpt>
   <trkpt lat="46.5015875" lon="11.0050282"><ele>0.0</ele><time>2024-06-12T04:45:17.400Z</time></trkpt>
   <trkpt lat="46.5015799" lon="11.0051084"><ele>0.0</ele><time>2024-06-12T04:45:17.600Z</time></trkpt>
   <trkpt lat="46.5015738" lon="11.0051888"><ele>0.0</ele><time>2024-06-12T04:45:17.800Z</time></trkpt>
   <trkpt lat="46.5015691" lon="11.0052695"><ele>0.0</ele><time>2024-06-12T04:45:18.1000Z</time></trkpt>
   <trkpt lat="46.5015659" lon="11.0053503"><ele>0.0</ele><time>2024-06-12T04:45:18.200Z</time></trkpt>
   <trkpt lat="46.5015641" lon="11.0054313"><ele>0.0</ele><time>2024-06-12T04:45:18.400Z</time></trkpt>
   <trkpt lat="46.5015637" lon="11.0055122"><ele>0.0</ele><time>2024-06-12T04:45:18.600Z</time></trkpt>
   <trkpt lat="46.5015648" lon="11.0055932"><ele>0.0</ele><time>2024-06-12T04:45:18.800Z</time></trkpt>
   <trkpt lat="46.5015673" lon="11.0056740"><ele>0.0</ele><time>2024-06-12T04:45:19.1000Z</time></trkpt>
   <trkpt lat="46.5015712" lon="11.0057548"><ele>0.0</ele><time>2024-06-12T04:45:19.200Z</time></trkpt>
   <trkpt lat="46.5015766" lon="11.0058354"><ele>0.0</ele><time>2024-06-12T04:45:19.400Z</time></trkpt>
   <trkpt lat="46.5015834" lon="11.0059157"><ele>0.0</ele><time>2024-06-12T04:45:19.600Z</time></trkpt>
   <trkpt lat="46.5015916" lon="11.0059958"><ele>0.0</ele><time>2024-06-12T04:45:19.800Z</time></trkpt>
   <trkpt lat="46.5016013" lon="11.0060755"><ele>0.0</ele><time>2024-06-12T04:45:20.1000Z</time></trkpt>
   <trkpt lat="46.5016123" lon="11.0061549"><ele>0.0</ele><time>2024-06-12T04:45:20.200Z</time></trkpt>
   <trkpt lat="46.5016248" lon="11.0062338"><ele>0.0</ele><time>2024-06-12T04:45:20.400Z</time></trkpt>
   <trkpt lat="46.5016387" lon="11.0063122"><ele>0.0</ele><time>2024-06-12T04:45:20.600Z</time></trkpt>
   <trkpt lat="46.5016539" lon="11.0063901"><ele>0.0</ele><time>2024-06-12T04:45:20.800Z</time></trkpt>
   <trkpt lat="46.5016706" lon="11.0064673"><ele>0.0</ele><time>2024-06-12T04:45:21.1000Z</time></trkpt>
   <trkpt lat="46.5016886" lon="11.0065440"><ele>0.0</ele><time>2024-06-12T04:45:21.200Z</time></trkpt>
   <trkpt lat="46.5017079" lon="11.0066199"><ele>0.0</ele><time>2024-06-12T04:45:21.400Z</time></trkpt>
   <trkpt lat="46.5017286" lon="11.0066950"><ele>0.0</ele><time>2024-06-12T04:45:21.600Z</time></trkpt>
   <trkpt lat="46.5017507" lon="11.0067694"><ele>0.0</ele><time>2024-06-12T04:45:21.800Z</time></trkpt>
   <trkpt lat="46.5017740" lon="11.0068429"><ele>0.0</ele><time>2024-06-12T04:45:22.1000Z</time></trkpt>
   <trkpt lat="46.5017986" lon="11.0069155"><ele>0.0</ele><time>2024-06-12T04:45:22.200Z</time></trkpt>
   <trkpt lat="46.5018246" lon="11.0069872"><ele>0.0</ele><time>2024-06-12T04:45:22.400Z</time></trkpt>
   <trkpt lat="46.5018518" lon="11.0070579"><ele>0.0</ele><time>2024-06-12T04:45:22.600Z</time></trkpt>
   <trkpt lat="46.5018802" lon="11.0071275"><ele>0.0</ele><time>2024-06-12T04:45:22.800Z</time></trkpt>
   <trkpt lat="46.5019099" lon="11.0071960"><ele>0.0</ele><time>2024-06-12T04:45:23.1000Z</time></trkpt>
   <trkpt lat="46.5019407" lon="11.0072634"><ele>0.0</ele><time>2024-06-12T04:45:23.200Z</time></trkpt>
   <trkpt lat="46.5019728" lon="11.0073297"><ele>0.0</ele><time>2024-06-12T04:45:23.400Z</time></trkpt>
   <trkpt lat="46.5020060" lon="11.0073946"><ele>0.0</ele><time>2024-06-12T04:45:23.600Z</time></trkpt>
   <trkpt lat="46.5020404" lon="11.0074584"><ele>0.0</ele><time>2024-06-12T04:45:23.800Z</time></trkpt>
   <trkpt lat="46.5020759" lon="11.0075208"><ele>0.0</ele><time>2024-06-12T04:45:24.1000Z</time></trkpt>
   <trkpt lat="46.5021125" lon="11.0075819"><ele>0.0</ele><time>2024-06-12T04:45:24.200Z</time></trkpt>
   <trkpt lat="46.5021501" lon="11.0076415"><ele>0.0</ele><time>2024-06-12T04:45:24.400Z</time></trkpt>
   <trkpt lat="46.5021889" lon="11.0076998"><ele>0.0</ele><time>2024-06-12T04:45:24.600Z</time></trkpt>
   <trkpt lat="46.5022286" lon="11.0077565"><ele>0.0</ele><time>2024-06-12T04:45:24.800Z</time></trkpt>
   <trkpt lat="46.5022693" lon="11.0078118"><ele>0.0</ele><time>2024-06-12T04:45:25.1000Z</time></trkpt>
   <trkpt lat="46.5023110" lon="11.0078655"><ele>0.0</ele><time>2024-06-12T04:45:25.200Z</time></trkpt>
   <trkpt lat="46.5023347" lon="11.0078948"><ele>0.0</ele><time>2024-06-12T04:45:25.400Z</time></trkpt>
   <trkpt lat="46.5023719" lon="11.0079401"><ele>0.0</ele><time>2024-06-12T04:45:25.600Z</time></trkpt>
   <trkpt lat="46.5024091" lon="11.0079855"><ele>0.0</ele><time>2024-06-12T04:45:25.800Z</time></trkpt>
   <trkpt lat="46.5024463" lon="11.0080308"><ele>0.0</ele><time>2024-06-12T04:45:26.1000Z</time></trkpt>
   <trkpt lat="46.5024835" lon="11.0080762"><ele>0.0</ele><time>2024-06-12T04:45:26.200Z</time></trkpt>
   <trkpt lat="46.5025207" lon="11.0081215"><ele>0.0</ele><time>2024-06-12T04:45:26.400Z</time></trkpt>
   <trkpt lat="46.5025579" lon="11.0081669"><ele>0.0</ele><time>2024-06-12T04:45:26.600Z</time></trkpt>
   <trkpt lat="46.5025951" lon="11.0082122"><ele>0.0</ele><time>2024-06-12T04:45:26.800Z</time></trkpt>
   <trkpt lat="46.5026323" lon="11.0082576"><ele>0.0</ele><time>2024-06-12T04:45:27.1000Z</time></trkpt>
   <trkpt lat="46.5026695" lon="11.0083029"><ele>0.0</ele><time>2024-06-12T04:45:27.200Z</time></trkpt>
   <trkpt lat="46.5027067" lon="11.0083483"><ele>0.0</ele><time>2024-06-12T04:45:27.400Z</time></trkpt>
   <trkpt lat="46.5027439" lon="11.0083936"><ele>0.0</ele><time>2024-06-12T04:45:27.600Z</time></trkpt>
   <trkpt lat="46.5027811" lon="11.0084390"><ele>0.0</ele><time>2024-06-12T04:45:27.800Z</time></trkpt>
   <trkpt lat="46.5028183" lon="11.0084843"><ele>0.0</ele><time>2024-06-12T04:45:28.1000Z</time></trkpt>
   <trkpt lat="46.5028555" lon="11.0085297"><ele>0.0</ele><time>2024-06-12T04:45:28.200Z</time></trkpt>
   <trkpt lat="46.5028858" lon="11.0085666"><ele>0.0</ele><time>2024-06-12T04:45:28.400Z</time></trkpt>
   <trkpt lat="46.5029191" lon="11.0086086"><ele>0.0</ele><time>2024-06-12T04:45:28.600Z</time></trkpt>
   <trkpt lat="46.5029514" lon="11.0086520"><ele>0.0</ele><time>2024-06-12T04:45:28.800Z</time></trkpt>
   <trkpt lat="46.5029827" lon="11.0086971"><ele>0.0</ele><time>2024-06-12T04:45:29.1000Z</time></trkpt>
   <trkpt lat="46.5030130" lon="11.0087435"><ele>0.0</ele><time>2024-06-12T04:45:29.200Z</time></trkpt>
   <trkpt lat="46.5030423" lon="11.0087914"><ele>0.0</ele><time>2024-06-12T04:45:29.400Z</time></trkpt>
   <trkpt lat="46.5030704" lon="11.0088406"><ele>0.0</ele><time>2024-06-12T04:45:29.600Z</time></trkpt>
   <trkpt lat="46.5030975" lon="11.0088912"><ele>0.0</ele><time>2024-06-12T04:45:29.800Z</time></trkpt>
   <trkpt lat="46.5031233" lon="11.0089430"><ele>0.0</ele><time>2024-06-12T04:45:30.1000Z</time></trkpt>
   <trkpt lat="46.5031480" lon="11.0089960"><ele>0.0</ele><time>2024-06-12T04:45:30.200Z</time></trkpt>
   <trkpt lat="46.5031715" lon="11.0090501"><ele>0.0</ele><time>2024-06-12T04:45:30.400Z</time></trkpt>
   <trkpt lat="46.5031938" lon="11.0091054"><ele>0.0</ele><time>2024-06-12T04:45:30.600Z</time></trkpt>
   <trkpt lat="46.5032148" lon="11.0091616"><ele>0.0</ele><time>2024-06-12T04:45:30.800Z</time></trkpt>
   <trkpt lat="46.5032345" lon="11.0092188"><ele>0.0</ele><time>2024-06-12T04:45:31.1000Z</time></trkpt>
   <trkpt lat="46.5032530" lon="11.0092770"><ele>0.0</ele><time>2024-06-12T04:45:31.200Z</time></trkpt>
   <trkpt lat="46.5032701" lon="11.0093360"><ele>0.0</ele><time>2024-06-12T04:45:31.400Z</time></trkpt>
   <trkpt lat="46.5032859" lon="11.0093957"><ele>0.0</ele><time>2024-06-12T04:45:31.600Z</time></trkpt>
   <trkpt lat="46.5033003" lon="11.0094562"><ele>0.0</ele><time>2024-06-12T04:45:31.800Z</time></trkpt>
   <trkpt lat="46.5033134" lon="11.0095173"><ele>0.0</ele><time>2024-06-12T04:45:32.1000Z</time></trkpt>
   <trkpt lat="46.5033251" lon="11.0095790"><ele>0.0</ele><time>2024-06-12T04:45:32.200Z</time></trkpt>
   <trkpt lat="46.5033353" lon="11.0096412"><ele>0.0</ele><time>2024-06-12T04:45:32.400Z</time></trkpt>
   <trkpt lat="46.5033442" lon="11.0097039"><ele>0.0</ele><time>2024-06-12T04:45:32.600Z</time></trkpt>
   <trkpt lat="46.5033517" lon="11.0097670"><ele>0.0</ele><time>2024-06-12T04:45:32.800Z</time></trkpt>
   <trkpt lat="46.5033578" lon="11.0098304"><ele>0.0</ele><time>2024-06-12T04:45:33.1000Z</time></trkpt>
   <trkpt lat="46.5033624" lon="11.0098941"><ele>0.0</ele><time>2024-06-12T04:45:33.200Z</time></trkpt>
   <trkpt lat="46.5033656" lon="11.0099579"><ele>0.0</ele><time>2024-06-12T04:45:33.400Z</time></trkpt>
   <trkpt lat="46.5033673" lon="11.0100219"><ele>0.0</ele><time>2024-06-12T04:45:33.600Z</time></trkpt>
   <trkpt lat="46.5033677" lon="11.0100859"><ele>0.0</ele><time>2024-06-12T04:45:33.800Z</time></trkpt>
   <trkpt lat="46.5033665" lon="11.0101498"><ele>0.0</ele><time>2024-06-12T04:45:34.1000Z</time></trkpt>
   <trkpt lat="46.5033640" lon="11.0102137"><ele>0.0</ele><time>2024-06-12T04:45:34.200Z</time></trkpt>
   <trkpt lat="46.5033600" lon="11.0102775"><ele>0.0</ele><time>2024-06-12T04:45:34.400Z</time></trkpt>
   <trkpt lat="46.5033545" lon="11.0103410"><ele>0.0</ele><time>2024-06-12T04:45:34.600Z</time></trkpt>
   <trkpt lat="46.5033477" lon="11.0104042"><ele>0.0</ele><time>2024-06-12T04:45:34.800Z</time></trkpt>
   <trkpt lat="46.5033394" lon="11.0104671"><ele>0.0</ele><time>2024-06-12T04:45:35.1000Z</time></trkpt>
   <trkpt lat="46.5033298" lon="11.0105295"><ele>0.0</ele><time>2024-06-12T04:45:35.200Z</time></trkpt>
   <trkpt lat="46.5033217" lon="11.0105752"><ele>0.0</ele><time>2024-06-12T04:45:35.400Z</time></trkpt>
   <trkpt lat="46.5033092" lon="11.0106433"><ele>0.0</ele><time>2024-06-12T04:45:35.600Z</time></trkpt>
   <trkpt lat="46.5032966" lon="11.0107114"><ele>0.0</ele><time>2024-06-12T04:45:35.800Z</time></trkpt>
   <trkpt lat="46.5032840" lon="11.0107796"><ele>0.0</ele><time>2024-06-12T04:45:36.1000Z</time></trkpt>
   <trkpt lat="46.5032715" lon="11.0108477"><ele>0.0</ele><time>2024-06-12T04:45:36.200Z</time></trkpt>
   <trkpt lat="46.5032589" lon="11.0109159"><ele>0.0</ele><time>2024-06-12T04:45:36.400Z</time></trkpt>
   <trkpt lat="46.5032463" lon="11.0109840"><ele>0.0</ele><time>2024-06-12T04:45:36.600Z</time></trkpt>
   <trkpt lat="46.5032338" lon="11.0110522"><ele>0.0</ele><time>2024-06-12T04:45:36.800Z</time></trkpt>
   <trkpt lat="46.5032212" lon="11.0111203"><ele>0.0</ele><time>2024-06-12T04:45:37.1000Z</time></trkpt>
   <trkpt lat="46.5032086" lon="11.0111885"><ele>0.0</ele><time>2024-06-12T04:45:37.200Z</time></trkpt>
   <trkpt lat="46.5031960" lon="11.0112566"><ele>0.0</ele><time>2024-06-12T04:45:37.400Z</time></trkpt>
   <trkpt lat="46.5031835" lon="11.0113248"><ele>0.0</ele><time>2024-06-12T04:45:37.600Z</time></trkpt>
   <trkpt lat="46.5031709" lon="11.0113929"><ele>0.0</ele><time>2024-06-12T04:45:37.800Z</time></trkpt>
   <trkpt lat="46.5031583" lon="11.0114610"><ele>0.0</ele><time>2024-06-12T04:45:38.000Z</time></trkpt>
   <trkpt lat="46.5031458" lon="11.0115292"><ele>0.0</ele><time>2024-06-12T04:45:38.200Z</time></trkpt>
   <trkpt lat="46.5031355" lon="11.0115847"><ele>0.0</ele><time>2024-06-12T04:45:38.400Z</time></trkpt>
   <trkpt lat="46.5031205" lon="11.0116682"><ele>0.0</ele><time>2024-06-12T04:45:38.600Z</time></trkpt>
   <trkpt lat="46.5031063" lon="11.0117519"><ele>0.0</ele><time>2024-06-12T04:45:38.800Z</time></trkpt>
   <trkpt lat="46.5030929" lon="11.0118359"><ele>0.0</ele><time>2024-06-12T04:45:39.000Z</time></trkpt>
   <trkpt lat="46.5030802" lon="11.0119201"><ele>0.0</ele><time>2024-06-12T04:45:39.200Z</time></trkpt>
   <trkpt lat="46.5030682" lon="11.0120045"><ele>0.0</ele><time>2024-06-12T04:45:39.400Z</time></trkpt>
   <trkpt lat="46.5030571" lon="11.0120892"><ele>0.0</ele><time>2024-06-12T04:45:39.600Z</time></trkpt>
   <trkpt lat="46.5030467" lon="11.0121741"><ele>0.0</ele><time>2024-06-12T04:45:39.800Z</time></trkpt>
   <trkpt lat="46.5030371" lon="11.0122592"><ele>0.0</ele><time>2024-06-12T04:45:40.000Z</time></trkpt>
   <trkpt lat="46.5030282" lon="11.0123445"><ele>0.0</ele><time>2024-06-12T04:45:40.200Z</time></trkpt>
   <trkpt lat="46.5030201" lon="11.0124299"><ele>0.0</ele><time>2024-06-12T04:45:40.400Z</time></trkpt>
   <trkpt lat="46.5030128" lon="11.0125155"><ele>0.0</ele><time>2024-06-12T04:45:40.600Z</time></trkpt>
   <trkpt lat="46.5030063" lon="11.0126012"><ele>0.0</ele><time>2024-06-12T04:45:40.800Z</time></trkpt>
   <trkpt lat="46.5030006" lon="11.0126870"><ele>0.0</ele><time>2024-06-12T04:45:41.000Z</time></trkpt>
   <trkpt lat="46.5029956" lon="11.0127729"><ele>0.0</ele><time>2024-06-12T04:45:41.200Z</time></trkpt>
   <trkpt lat="46.5029915" lon="11.0128590"><ele>0.0</ele><time>2024-06-12T04:45:41.400Z</time></trkpt>
   <trkpt lat="46.5029881" lon="11.0129450"><ele>0.0</ele><time>2024-06-12T04:45:41.600Z</time></trkpt>
   <trkpt lat="46.5029855" lon="11.0130312"><ele>0.0</ele><time>2024-06-12T04:45:41.800Z</time></trkpt>
   <trkpt lat="46.5029836" lon="11.0131174"><ele>0.0</ele><time>2024-06-12T04:45:42.000Z</time></trkpt>
   <trkpt lat="46.5029826" lon="11.0132036"><ele>0.0</ele><time>2024-06-12T04:45:42.200Z</time></trkpt>
   <trkpt lat="46.5029823" lon="11.0132898"><ele>0.0</ele><time>2024-06-12T04:45:42.400Z</time></trkpt>
   <trkpt lat="46.5029828" lon="11.0133760"><ele>0.0</ele><time>2024-06-12T04:45:42.600Z</time></trkpt>
   <trkpt lat="46.5029842" lon="11.0134622"><ele>0.0</ele><time>2024-06-12T04:45:42.800Z</time></trkpt>
   <trkpt lat="46.5029862" lon="11.0135484"><ele>0.0</ele><time>2024-06-12T04:45:43.000Z</time></trkpt>
   <trkpt lat="46.5029891" lon="11.0136345"><ele>0.0</ele><time>2024-06-12T04:45:43.200Z</time></trkpt>
   <trkpt lat="46.5029928" lon="11.0137206"><ele>0.0</ele><time>2024-06-12T04:45:43.400Z</time></trkpt>
   <trkpt lat="46.5029972" lon="11.0138066"><ele>0.0</ele><time>2024-06-12T04:45:43.600Z</time></trkpt>
   <trkpt lat="46.5030024" lon="11.0138925"><ele>0.0</ele><time>2024-06-12T04:45:43.800Z</time></trkpt>
   <trkpt lat="46.5030084" lon="11.0139783"><ele>0.0</ele><time>2024-06-12T04:45:44.000Z</time></trkpt>
   <trkpt lat="46.5030152" lon="11.0140639"><ele>0.0</ele><time>2024-06-12T04:45:44.200Z</time></trkpt>
   <trkpt lat="46.5030227" lon="11.0141495"><ele>0.0</ele><time>2024-06-12T04:45:44.400Z</time></trkpt>
   <trkpt lat="46.5030311" lon="11.0142348"><ele>0.0</ele><time>2024-06-12T04:45:44.600Z</time></trkpt>
   <trkpt lat="46.5030402" lon="11.0143200"><ele>0.0</ele><time>2024-06-12T04:45:44.800Z</time></trkpt>
   <trkpt lat="46.5030501" lon="11.0144051"><ele>0.0</ele><time>2024-06-12T04:45:45.000Z</time></trkpt>
   <trkpt lat="46.5030607" lon="11.0144899"><ele>0.0</ele><time>2024-06-12T04:45:45.200Z</time></trkpt>
   <trkpt lat="46.5030721" lon="11.0145745"><ele>0.0</ele><time>2024-06-12T04:45:45.400Z</time></trkpt>
   <trkpt lat="46.5030843" lon="11.0146589"><ele>0.0</ele><time>2024-06-12T04:45:45.600Z</time></trkpt>
   <trkpt lat="46.5030973" lon="11.0147431"><ele>0.0</ele><time>2024-06-12T04:45:45.800Z</time></trkpt>
   <trkpt lat="46.5031110" lon="11.0148270"><ele>0.0</ele><time>2024-06-12T04:45:46.000Z</time></trkpt>
   <trkpt lat="46.5031255" lon="11.0149106"><ele>0.0</ele><time>2024-06-12T04:45:46.200Z</time></trkpt>
   <trkpt lat="46.5031407" lon="11.0149939"><ele>0.0</ele><time>2024-06-12T04:45:46.400Z</time></trkpt>
   <trkpt lat="46.5031567" lon="11.0150770"><ele>0.0</ele><time>2024-06-12T04:45:46.600Z</time></trkpt>
   <trkpt lat="46.5031734" lon="11.0151597"><ele>0.0</ele><time>2024-06-12T04:45:46.800Z</time></trkpt>
   <trkpt lat="46.5031909" lon="11.0152421"><ele>0.0</ele><time>2024-06-12T04:45:47.000Z</time></trkpt>
   <trkpt lat="46.5032092" lon="11.0153241"><ele>0.0</ele><time>2024-06-12T04:45:47.200Z</time></trkpt>
   <trkpt lat="46.5032282" lon="11.0154058"><ele>0.0</ele><time>2024-06-12T04:45:47.400Z</time></trkpt>
   <trkpt lat="46.5032479" lon="11.0154872"><ele>0.0</ele><time>2024-06-12T04:45:47.600Z</time></trkpt>
   <trkpt lat="46.5032683" lon="11.0155681"><ele>0.0</ele><time>2024-06-12T04:45:47.800Z</time></trkpt>
   <trkpt lat="46.5032895" lon="11.0156486"><ele>0.0</ele><time>2024-06-12T04:45:48.000Z</time></trkpt>
   <trkpt lat="46.5033115" lon="11.0157288"><ele>0.0</ele><time>2024-06-12T04:45:48.200Z</time></trkpt>
   <trkpt lat="46.5033341" lon="11.0158085"><ele>0.0</ele><time>2024-06-12T04:45:48.400Z</time></trkpt>
   <trkpt lat="46.5033575" lon="11.0158877"><ele>0.0</ele><time>2024-06-12T04:45:48.600Z</time></trkpt>
   <trkpt lat="46.5033816" lon="11.0159665"><ele>0.0</ele><time>2024-06-12T04:45:48.800Z</time></trkpt>
   <trkpt lat="46.5034064" lon="11.0160449"><ele>0.0</ele><time>2024-06-12T04:45:49.000Z</time></trkpt>
   <trkpt lat="46.5034319" lon="11.0161227"><ele>0.0</ele><time>2024-06-12T04:45:49.200Z</time></trkpt>
   <trkpt lat="46.5034581" lon="11.0162001"><ele>0.0</ele><time>2024-06-12T04:45:49.400Z</time></trkpt>
   <trkpt lat="46.5034851" lon="11.0162769"><ele>0.0</ele><time>2024-06-12T04:45:49.600Z</time></trkpt>
   <trkpt lat="46.5035127" lon="11.0163532"><ele>0.0</ele><time>2024-06-12T04:45:49.800Z</time></trkpt>
   <trkpt lat="46.5035410" lon="11.0164290"><ele>0.0</ele><time>2024-06-12T04:45:50.000Z</time></trkpt>
   <trkpt lat="46.5035700" lon="11.0165043"><ele>0.0</ele><time>2024-06-12T04:45:50.200Z</time></trkpt>
   <trkpt lat="46.5035997" lon="11.0165789"><ele>0.0</ele><time>2024-06-12T04:45:50.400Z</time></trkpt>
   <trkpt lat="46.5036300" lon="11.0166530"><ele>0.0</ele><time>2024-06-12T04:45:50.600Z</time></trkpt>
   <trkpt lat="46.5036611" lon="11.0167265"><ele>0.0</ele><time>2024-06-12T04:45:50.800Z</time></trkpt>
   <trkpt lat="46.5036927" lon="11.0167995"><ele>0.0</ele><time>2024-06-12T04:45:51.000Z</time></trkpt>
   <trkpt lat="46.5037251" lon="11.0168718"><ele>0.0</ele><time>2024-06-12T04:45:51.200Z</time></trkpt>
   <trkpt lat="46.5037581" lon="11.0169434"><ele>0.0</ele><time>2024-06-12T04:45:51.400Z</time></trkpt>
   <trkpt lat="46.5037917" lon="11.0170145"><ele>0.0</ele><time>2024-06-12T04:45:51.600Z</time></trkpt>
   <trkpt lat="46.5038260" lon="11.0170848"><ele>0.0</ele><time>2024-06-12T04:45:51.800Z</time></trkpt>
   <trkpt lat="46.5038610" lon="11.0171545"><ele>0.0</ele><time>2024-06-12T04:45:52.000Z</time></trkpt>
   <trkpt lat="46.5038965" lon="11.0172236"><ele>0.0</ele><time>2024-06-12T04:45:52.200Z</time></trkpt>
   <trkpt lat="46.5039327" lon="11.0172919"><ele>0.0</ele><time>2024-06-12T04:45:52.400Z</time></trkpt>
   <trkpt lat="46.5039695" lon="11.0173596"><ele>0.0</ele><time>2024-06-12T04:45:52.600Z</time></trkpt>
   <trkpt lat="46.5040069" lon="11.0174265"><ele>0.0</ele><time>2024-06-12T04:45:52.800Z</time></trkpt>
   <trkpt lat="46.5040343" lon="11.0174744"><ele>0.0</ele><time>2024-06-12T04:45:53.000Z</time></trkpt>
   <trkpt lat="46.5040655" lon="11.0175285"><ele>0.0</ele><time>2024-06-12T04:45:53.200Z</time></trkpt>
   <trkpt lat="46.5040968" lon="11.0175825"><ele>0.0</ele><time>2024-06-12T04:45:53.400Z</time></trkpt>
   <trkpt lat="46.5041280" lon="11.0176365"><ele>0.0</ele><time>2024-06-12T04:45:53.600Z</time></trkpt>
   <trkpt lat="46.5041592" lon="11.0176906"><ele>0.0</ele><time>2024-06-12T04:45:53.800Z</time></trkpt>
   <trkpt lat="46.5041904" lon="11.0177446"><ele>0.0</ele><time>2024-06-12T04:45:54.000Z</time></trkpt>
   <trkpt lat="46.5042216" lon="11.0177987"><ele>0.0</ele><time>2024-06-12T04:45:54.200Z</time></trkpt>
   <trkpt lat="46.5042528" lon="11.0178527"><ele>0.0</ele><time>2024-06-12T04:45:54.400Z</time></trkpt>
   <trkpt lat="46.5042841" lon="11.0179068"><ele>0.0</ele><time>2024-06-12T04:45:54.600Z</time></trkpt>
   <trkpt lat="46.5043153" lon="11.0179608"><ele>0.0</ele><time>2024-06-12T04:45:54.800Z</time></trkpt>
   <trkpt lat="46.5043465" lon="11.0180149"><ele>0.0</ele><time>2024-06-12T04:45:55.000Z</time></trkpt>
   <trkpt lat="46.5043777" lon="11.0180689"><ele>0.0</ele><time>2024-06-12T04:45:55.200Z</time></trkpt>
   <trkpt lat="46.5044089" lon="11.0181229"><ele>0.0</ele><time>2024-06-12T04:45:55.400Z</time></trkpt>
   <trkpt lat="46.5044401" lon="11.0181770"><ele>0.0</ele><time>2024-06-12T04:45:55.600Z</time></trkpt>
   <trkpt lat="46.5044713" lon="11.0182310"><ele>0.0</ele><time>2024-06-12T04:45:55.800Z</time></trkpt>
   <trkpt lat="46.5044968" lon="11.0182751"><ele>0.0</ele><time>2024-06-12T04:45:56.000Z</time></trkpt>
   <trkpt lat="46.5045289" lon="11.0183323"><ele>0.0</ele><time>2024-06-12T04:45:56.200Z</time></trkpt>
   <trkpt lat="46.5045599" lon="11.0183909"><ele>0.0</ele><time>2024-06-12T04:45:56.400Z</time></trkpt>
   <trkpt lat="46.5045898" lon="11.0184508"><ele>0.0</ele><time>2024-06-12T04:45:56.600Z</time></trkpt>
   <trkpt lat="46.5046185" lon="11.0185118"><ele>0.0</ele><time>2024-06-12T04:45:56.800Z</time></trkpt>
   <trkpt lat="46.5046460" lon="11.0185740"><ele>0.0</ele><time>2024-06-12T04:45:57.000Z</time></trkpt>
   <trkpt lat="46.5046723" lon="11.0186373"><ele>0.0</ele><time>2024-06-12T04:45:57.200Z</time></trkpt>
   <trkpt lat="46.5046973" lon="11.0187016"><ele>0.0</ele><time>2024-06-12T04:45:57.400Z</time></trkpt>
   <trkpt lat="46.5047210" lon="11.0187670"><ele>0.0</ele><time>2024-06-12T04:45:57.600Z</time></trkpt>
   <trkpt lat="46.5047435" lon="11.0188333"><ele>0.0</ele><time>2024-06-12T04:45:57.800Z</time></trkpt>
   <trkpt lat="46.5047647" lon="11.0189005"><ele>0.0</ele><time>2024-06-12T04:45:58.000Z</time></trkpt>
   <trkpt lat="46.5047846" lon="11.0189685"><ele>0.0</ele><time>2024-06-12T04:45:58.200Z</time></trkpt>
   <trkpt lat="46.5048031" lon="11.0190373"><ele>0.0</ele><time>2024-06-12T04:45:58.400Z</time></trkpt>
   <trkpt lat="46.5048203" lon="11.0191069"><ele>0.0</ele><time>2024-06-12T04:45:58.600Z</time></trkpt>
   <trkpt lat="46.5048361" lon="11.0191771"><ele>0.0</ele><time>2024-06-12T04:45:58.800Z</time></trkpt>
   <trkpt lat="46.5048506" lon="11.0192480"><ele>0.0</ele><time>2024-06-12T04:45:59.000Z</time></trkpt>
   <trkpt lat="46.5048636" lon="11.0193194"><ele>0.0</ele><time>2024-06-12T04:45:59.200Z</time></trkpt>
   <trkpt lat="46.5048753" lon="11.0193913"><ele>0.0</ele><time>2024-06-12T04:45:59.400Z</time></trkpt>
   <trkpt lat="46.5048856" lon="11.0194637"><ele>0.0</ele><time>2024-06-12T04:45:59.600Z</time></trkpt>
   <trkpt lat="46.5048944" lon="11.0195365"><ele>0.0</ele><time>2024-06-12T04:45:59.800Z</time></trkpt>
   <trkpt lat="46.5049018" lon="11.0196096"><ele>0.0</ele><time>2024-06-12T04:46:00.000Z</time></trkpt>
   <trkpt lat="46.5049078" lon="11.0196830"><ele>0.0</ele><time>2024-06-12T04:46:00.200Z</time></trkpt>
   <trkpt lat="46.5049124" lon="11.0197566"><ele>0.0</ele><time>2024-06-12T04:46:00.400Z</time></trkpt>
   <trkpt lat="46.5049156" lon="11.0198304"><ele>0.0</ele><time>2024-06-12T04:46:00.600Z</time></trkpt>
   <trkpt lat="46.5049173" lon="11.0199042"><ele>0.0</ele><time>2024-06-12T04:46:00.800Z</time></trkpt>
   <trkpt lat="46.5049175" lon="11.0199782"><ele>0.0</ele><time>2024-06-12T04:46:01.000Z</time></trkpt>
   <trkpt lat="46.5049163" lon="11.0200520"><ele>0.0</ele><time>2024-06-12T04:46:01.200Z</time></trkpt>
   <trkpt lat="46.5049137" lon="11.0201258"><ele>0.0</ele><time>2024-06-12T04:46:01.400Z</time></trkpt>
   <trkpt lat="46.5049097" lon="11.0201995"><ele>0.0</ele><time>2024-06-12T04:46:01.600Z</time></trkpt>
   <trkpt lat="46.5049042" lon="11.0202730"><ele>0.0</ele><time>2024-06-12T04:46:01.800Z</time></trkpt>
   <trkpt lat="46.5048973" lon="11.0203462"><ele>0.0</ele><time>2024-06-12T04:46:02.000Z</time></trkpt>
   <trkpt lat="46.5048890" lon="11.0204191"><ele>0.0</ele><time>2024-06-12T04:46:02.200Z</time></trkpt>
   <trkpt lat="46.5048792" lon="11.0204917"><ele>0.0</ele><time>2024-06-12T04:46:02.400Z</time></trkpt>
   <trkpt lat="46.5048681" lon="11.0205638"><ele>0.0</ele><time>2024-06-12T04:46:02.600Z</time></trkpt>
   <trkpt lat="46.5048555" lon="11.0206354"><ele>0.0</ele><time>2024-06-12T04:46:02.800Z</time></trkpt>
   <trkpt lat="46.5048416" lon="11.0207065"><ele>0.0</ele><time>2024-06-12T04:46:03.000Z</time></trkpt>
   <trkpt lat="46.5048262" lon="11.0207769"><ele>0.0</ele><time>2024-06-12T04:46:03.200Z</time></trkpt>
   <trkpt lat="46.5048095" lon="11.0208467"><ele>0.0</ele><time>2024-06-12T04:46:03.400Z</time></trkpt>
   <trkpt lat="46.5048091" lon="11.0208484"><ele>0.0</ele><time>2024-06-12T04:46:03.600Z</time></trkpt>
   <trkpt lat="46.5047925" lon="11.0209147"><ele>0.0</ele><time>2024-06-12T04:46:03.800Z</time></trkpt>
   <trkpt lat="46.5047759" lon="11.0209810"><ele>0.0</ele><time>2024-06-12T04:46:04.000Z</time></trkpt>
   <trkpt lat="46.5047593" lon="11.0210473"><ele>0.0</ele><time>2024-06-12T04:46:04.200Z</time></trkpt>
   <trkpt lat="46.5047427" lon="11.0211136"><ele>0.0</ele><time>2024-06-12T04:46:04.400Z</time></trkpt>
   <trkpt lat="46.5047261" lon="11.0211799"><ele>0.0</ele><time>2024-06-12T04:46:04.600Z</time></trkpt>
   <trkpt lat="46.5047095" lon="11.0212462"><ele>0.0</ele><time>2024-06-12T04:46:04.800Z</time></trkpt>
   <trkpt lat="46.5046929" lon="11.0213125"><ele>0.0</ele><time>2024-06-12T04:46:05.000Z</time></trkpt>
   <trkpt lat="46.5046762" lon="11.0213788"><ele>0.0</ele><time>2024-06-12T04:46:05.200Z</time></trkpt>
   <trkpt lat="46.5046596" lon="11.0214451"><ele>0.0</ele><time>2024-06-12T04:46:05.400Z</time></trkpt>
   <trkpt lat="46.5046430" lon="11.0215114"><ele>0.0</ele><time>2024-06-12T04:46:05.600Z</time></trkpt>
   <trkpt lat="46.5046264" lon="11.0215777"><ele>0.0</ele><time>2024-06-12T04:46:05.800Z</time></trkpt>
   <trkpt lat="46.5046098" lon="11.0216440"><ele>0.0</ele><time>2024-06-12T04:46:06.000Z</time></trkpt>
   <trkpt lat="46.5045932" lon="11.0217103"><ele>0.0</ele><time>2024-06-12T04:46:06.200Z</time></trkpt>
   <trkpt lat="46.5045766" lon="11.0217765"><ele>0.0</ele><time>2024-06-12T04:46:06.400Z</time></trkpt>
   <trkpt lat="46.5045631" lon="11.0218306"><ele>0.0</ele><time>2024-06-12T04:46:06.600Z</time></trkpt>
   <trkpt lat="46.5045439" lon="11.0219101"><ele>0.0</ele><time>2024-06-12T04:46:06.800Z</time></trkpt>
   <trkpt lat="46.5045261" lon="11.0219903"><ele>0.0</ele><time>2024-06-12T04:46:07.000Z</time></trkpt>
   <trkpt lat="46.5045097" lon="11.0220711"><ele>0.0</ele><time>2024-06-12T04:46:07.200Z</time></trkpt>
   <trkpt lat="46.5044946" lon="11.0221525"><ele>0.0</ele><time>2024-06-12T04:46:07.400Z</time></trkpt>
   <trkpt lat="46.5044810" lon="11.0222344"><ele>0.0</ele><time>2024-06-12T04:46:07.600Z</time></trkpt>
   <trkpt lat="46.5044688" lon="11.0223168"><ele>0.0</ele><time>2024-06-12T04:46:07.800Z</time></trkpt>
   <trkpt lat="46.5044579" lon="11.0223996"><ele>0.0</ele><time>2024-06-12T04:46:08.000Z</time></trkpt>
   <trkpt lat="46.5044485" lon="11.0224827"><ele>0.0</ele><time>2024-06-12T04:46:08.200Z</time></trkpt>
   <trkpt lat="46.5044405" lon="11.0225662"><ele>0.0</ele><time>2024-06-12T04:46:08.400Z</time></trkpt>
   <trkpt lat="46.5044340" lon="11.0226499"><ele>0.0</ele><time>2024-06-12T04:46:08.600Z</time></trkpt>
   <trkpt lat="46.5044288" lon="11.0227338"><ele>0.0</ele><time>2024-06-12T04:46:08.800Z</time></trkpt>
   <trkpt lat="46.5044251" lon="11.0228179"><ele>0.0</ele><time>2024-06-12T04:46:09.000Z</time></trkpt>
   <trkpt lat="46.5044229" lon="11.0229021"><ele>0.0</ele><time>2024-06-12T04:46:09.200Z</time></trkpt>
   <trkpt lat="46.5044220" lon="11.0229864"><ele>0.0</ele><time>2024-06-12T04:46:09.400Z</time></trkpt>
   <trkpt lat="46.5044227" lon="11.0230706"><ele>0.0</ele><time>2024-06-12T04:46:09.600Z</time></trkpt>
   <trkpt lat="46.5044247" lon="11.0231548"><ele>0.0</ele><time>2024-06-12T04:46:09.800Z</time></trkpt>
   <trkpt lat="46.5044282" lon="11.0232390"><ele>0.0</ele><time>2024-06-12T04:46:10.000Z</time></trkpt>
   <trkpt lat="46.5044331" lon="11.0233229"><ele>0.0</ele><time>2024-06-12T04:46:10.200Z</time></trkpt>
   <trkpt lat="46.5044395" lon="11.0234067"><ele>0.0</ele><time>2024-06-12T04:46:10.400Z</time></trkpt>
   <trkpt lat="46.5044473" lon="11.0234902"><ele>0.0</ele><time>2024-06-12T04:46:10.600Z</time></trkpt>
   <trkpt lat="46.5044565" lon="11.0235734"><ele>0.0</ele><time>2024-06-12T04:46:10.800Z</time></trkpt>
   <trkpt lat="46.5044671" lon="11.0236562"><ele>0.0</ele><time>2024-06-12T04:46:11.000Z</time></trkpt>
   <trkpt lat="46.5044792" lon="11.0237386"><ele>0.0</ele><time>2024-06-12T04:46:11.200Z</time></trkpt>
   <trkpt lat="46.5044926" lon="11.0238206"><ele>0.0</ele><time>2024-06-12T04:46:11.400Z</time></trkpt>
   <trkpt lat="46.5045074" lon="11.0239021"><ele>0.0</ele><time>2024-06-12T04:46:11.600Z</time></trkpt>
   <trkpt lat="46.5045237" lon="11.0239830"><ele>0.0</ele><time>2024-06-12T04:46:11.800Z</time></trkpt>
   <trkpt lat="46.5045413" lon="11.0240633"><ele>0.0</ele><time>2024-06-12T04:46:12.000Z</time></trkpt>
   <trkpt lat="46.5045602" lon="11.0241429"><ele>0.0</ele><time>2024-06-12T04:46:12.200Z</time></trkpt>
   <trkpt lat="46.5045806" lon="11.0242218"><ele>0.0</ele><time>2024-06-12T04:46:12.400Z</time></trkpt>
   <trkpt lat="46.5046022" lon="11.0243000"><ele>0.0</ele><time>2024-06-12T04:46:12.600Z</time></trkpt>
   <trkpt lat="46.5046252" lon="11.0243774"><ele>0.0</ele><time>2024-06-12T04:46:12.800Z</time></trkpt>
   <trkpt lat="46.5046495" lon="11.0244539"><ele>0.0</ele><time>2024-06-12T04:46:13.000Z</time></trkpt>
   <trkpt lat="46.5046751" lon="11.0245295"><ele>0.0</ele><time>2024-06-12T04:46:13.200Z</time></trkpt>
   <trkpt lat="46.5047020" lon="11.0246041"><ele>0.0</ele><time>2024-06-12T04:46:13.400Z</time></trkpt>
   <trkpt lat="46.5047302" lon="11.0246778"><ele>0.0</ele><time>2024-06-12T04:46:13.600Z</time></trkpt>
   <trkpt lat="46.5047596" lon="11.0247505"><ele>0.0</ele><time>2024-06-12T04:46:13.800Z</time></trkpt>
   <trkpt lat="46.5047902" lon="11.0248220"><ele>0.0</ele><time>2024-06-12T04:46:14.000Z</time></trkpt>
   <trkpt lat="46.5048220" lon="11.0248924"><ele>0.0</ele><time>2024-06-12T04:46:14.200Z</time></trkpt>
   <trkpt lat="46.5048551" lon="11.0249617"><ele>0.0</ele><time>2024-06-12T04:46:14.400Z</time></trkpt>
   <trkpt lat="46.5048893" lon="11.0250298"><ele>0.0</ele><time>2024-06-12T04:46:14.600Z</time></trkpt>
   <trkpt lat="46.5049247" lon="11.0250965"><ele>0.0</ele><time>2024-06-12T04:46:14.800Z</time></trkpt>
   <trkpt lat="46.5049611" lon="11.0251620"><ele>0.0</ele><time>2024-06-12T04:46:15.000Z</time></trkpt>
   <trkpt lat="46.5049987" lon="11.0252262"><ele>0.0</ele><time>2024-06-12T04:46:15.200Z</time></trkpt>
   <trkpt lat="46.5050374" lon="11.0252890"><ele>0.0</ele><time>2024-06-12T04:46:15.400Z</time></trkpt>
   <trkpt lat="46.5050772" lon="11.0253504"><ele>0.0</ele><time>2024-06-12T04:46:15.600Z</time></trkpt>
   <trkpt lat="46.5051069" lon="11.0253944"><ele>0.0</ele><time>2024-06-12T04:46:15.800Z</time></trkpt>
   <trkpt lat="46.5051412" lon="11.0254443"><ele>0.0</ele><time>2024-06-12T04:46:16.000Z</time></trkpt>
   <trkpt lat="46.5051756" lon="11.0254941"><ele>0.0</ele><time>2024-06-12T04:46:16.200Z</time></trkpt>
   <trkpt lat="46.5052099" lon="11.0255440"><ele>0.0</ele><time>2024-06-12T04:46:16.400Z</time></trkpt>
   <trkpt lat="46.5052443" lon="11.0255939"><ele>0.0</ele><time>2024-06-12T04:46:16.600Z</time></trkpt>
   <trkpt lat="46.5052786" lon="11.0256438"><ele>0.0</ele><time>2024-06-12T04:46:16.800Z</time></trkpt>
   <trkpt lat="46.5053129" lon="11.0256937"><ele>0.0</ele><time>2024-06-12T04:46:17.000Z</time></trkpt>
   <trkpt lat="46.5053473" lon="11.0257436"><ele>0.0</ele><time>2024-06-12T04:46:17.200Z</time></trkpt>
   <trkpt lat="46.5053816" lon="11.0257935"><ele>0.0</ele><time>2024-06-12T04:46:17.400Z</time></trkpt>
   <trkpt lat="46.5054160" lon="11.0258434"><ele>0.0</ele><time>2024-06-12T04:46:17.600Z</time></trkpt>
   <trkpt lat="46.5054503" lon="11.0258932"><ele>0.0</ele><time>2024-06-12T04:46:17.800Z</time></trkpt>
   <trkpt lat="46.5054846" lon="11.0259431"><ele>0.0</ele><time>2024-06-12T04:46:18.000Z</time></trkpt>
   <trkpt lat="46.5055190" lon="11.0259930"><ele>0.0</ele><time>2024-06-12T04:46:18.200Z</time></trkpt>
   <trkpt lat="46.5055533" lon="11.0260429"><ele>0.0</ele><time>2024-06-12T04:46:18.400Z</time></trkpt>
   <trkpt lat="46.5055877" lon="11.0260928"><ele>0.0</ele><time>2024-06-12T04:46:18.600Z</time></trkpt>
   <trkpt lat="46.5056156" lon="11.0261334"><ele>0.0</ele><time>2024-06-12T04:46:18.800Z</time></trkpt>
   <trkpt lat="46.5056483" lon="11.0261823"><ele>0.0</ele><time>2024-06-12T04:46:19.000Z</time></trkpt>
   <trkpt lat="46.5056799" lon="11.0262327"><ele>0.0</ele><time>2024-06-12T04:46:19.200Z</time></trkpt>
   <trkpt lat="46.5057104" lon="11.0262844"><ele>0.0</ele><time>2024-06-12T04:46:19.400Z</time></trkpt>
   <trkpt lat="46.5057398" lon="11.0263375"><ele>0.0</ele><time>2024-06-12T04:46:19.600Z</time></trkpt>
   <trkpt lat="46.5057681" lon="11.0263918"><ele>0.0</ele><time>2024-06-12T04:46:19.800Z</time></trkpt>
   <trkpt lat="46.5057953" lon="11.0264474"><ele>0.0</ele><time>2024-06-12T04:46:20.000Z</time></trkpt>
   <trkpt lat="46.5058212" lon="11.0265042"><ele>0.0</ele><time>2024-06-12T04:46:20.200Z</time></trkpt>
   <trkpt lat="46.5058459" lon="11.0265621"><ele>0.0</ele><time>2024-06-12T04:46:20.400Z</time></trkpt>
   <trkpt lat="46.5058694" lon="11.0266211"><ele>0.0</ele><time>2024-06-12T04:46:20.600Z</time></trkpt>
   <trkpt lat="46.5058917" lon="11.0266811"><ele>0.0</ele><time>2024-06-12T04:46:20.800Z</time></trkpt>
   <trkpt lat="46.5059126" lon="11.0267420"><ele>0.0</ele><time>2024-06-12T04:46:21.000Z</time></trkpt>
   <trkpt lat="46.5059323" lon="11.0268039"><ele>0.0</ele><time>2024-06-12T04:46:21.200Z</time></trkpt>
   <trkpt lat="46.5059506" lon="11.0268666"><ele>0.0</ele><time>2024-06-12T04:46:21.400Z</time></trkpt>
   <trkpt lat="46.5059676" lon="11.0269301"><ele>0.0</ele><time>2024-06-12T04:46:21.600Z</time></trkpt>
   <trkpt lat="46.5059833" lon="11.0269943"><ele>0.0</ele><time>2024-06-12T04:46:21.800Z</time></trkpt>
   <trkpt lat="46.5059976" lon="11.0270592"><ele>0.0</ele><time>2024-06-12T04:46:22.000Z</time></trkpt>
   <trkpt lat="46.5060105" lon="11.0271247"><ele>0.0</ele><time>2024-06-12T04:46:22.200Z</time></trkpt>
   <trkpt lat="46.5060221" lon="11.0271907"><ele>0.0</ele><time>2024-06-12T04:46:22.400Z</time></trkpt>
   <trkpt lat="46.5060322" lon="11.0272573"><ele>0.0</ele><time>2024-06-12T04:46:22.600Z</time></trkpt>
   <trkpt lat="46.5060409" lon="11.0273242"><ele>0.0</ele><time>2024-06-12T04:46:22.800Z</time></trkpt>
   <trkpt lat="46.5060482" lon="11.0273915"><ele>0.0</ele><time>2024-06-12T04:46:23.000Z</time></trkpt>
   <trkpt lat="46.5060541" lon="11.0274591"><ele>0.0</ele><time>2024-06-12T04:46:23.200Z</time></trkpt>
   <trkpt lat="46.5060586" lon="11.0275270"><ele>0.0</ele><time>2024-06-12T04:46:23.400Z</time></trkpt>
   <trkpt lat="46.5060616" lon="11.0275949"><ele>0.0</ele><time>2024-06-12T04:46:23.600Z</time></trkpt>
   <trkpt lat="46.5060632" lon="11.0276630"><ele>0.0</ele><time>2024-06-12T04:46:23.800Z</time></trkpt>
   <trkpt lat="46.5060633" lon="11.0277312"><ele>0.0</ele><time>2024-06-12T04:46:24.000Z</time></trkpt>
   <trkpt lat="46.5060620" lon="11.0277993"><ele>0.0</ele><time>2024-06-12T04:46:24.200Z</time></trkpt>
   <trkpt lat="46.5060593" lon="11.0278673"><ele>0.0</ele><time>2024-06-12T04:46:24.400Z</time></trkpt>
   <trkpt lat="46.5060551" lon="11.0279352"><ele>0.0</ele><time>2024-06-12T04:46:24.600Z</time></trkpt>
   <trkpt lat="46.5060495" lon="11.0280028"><ele>0.0</ele><time>2024-06-12T04:46:24.800Z</time></trkpt>
   <trkpt lat="46.5060425" lon="11.0280702"><ele>0.0</ele><time>2024-06-12T04:46:25.000Z</time></trkpt>
   <trkpt lat="46.5060402" lon="11.0280897"><ele>0.0</ele><time>2024-06-12T04:46:25.200Z</time></trkpt>
   <trkpt lat="46.5060318" lon="11.0281592"><ele>0.0</ele><time>2024-06-12T04:46:25.400Z</time></trkpt>
   <trkpt lat="46.5060234" lon="11.0282286"><ele>0.0</ele><time>2024-06-12T04:46:25.600Z</time></trkpt>
   <trkpt lat="46.5060149" lon="11.0282981"><ele>0.0</ele><time>2024-06-12T04:46:25.800Z</time></trkpt>
   <trkpt lat="46.5060065" lon="11.0283676"><ele>0.0</ele><time>2024-06-12T04:46:26.000Z</time></trkpt>
   <trkpt lat="46.5059981" lon="11.0284371"><ele>0.0</ele><time>2024-06-12T04:46:26.200Z</time></trkpt>
   <trkpt lat="46.5059896" lon="11.0285065"><ele>0.0</ele><time>2024-06-12T04:46:26.400Z</time></trkpt>
   <trkpt lat="46.5059812" lon="11.0285760"><ele>0.0</ele><time>2024-06-12T04:46:26.600Z</time></trkpt>
   <trkpt lat="46.5059728" lon="11.0286455"><ele>0.0</ele><time>2024-06-12T04:46:26.800Z</time></trkpt>
   <trkpt lat="46.5059643" lon="11.0287150"><ele>0.0</ele><time>2024-06-12T04:46:27.000Z</time></trkpt>
   <trkpt lat="46.5059559" lon="11.0287845"><ele>0.0</ele><time>2024-06-12T04:46:27.200Z</time></trkpt>
   <trkpt lat="46.5059475" lon="11.0288539"><ele>0.0</ele><time>2024-06-12T04:46:27.400Z</time></trkpt>
   <trkpt lat="46.5059390" lon="11.0289234"><ele>0.0</ele><time>2024-06-12T04:46:27.600Z</time></trkpt>
   <trkpt lat="46.5059306" lon="11.0289929"><ele>0.0</ele><time>2024-06-12T04:46:27.800Z</time></trkpt>
   <trkpt lat="46.5059222" lon="11.0290624"><ele>0.0</ele><time>2024-06-12T04:46:28.000Z</time></trkpt>
   <trkpt lat="46.5059153" lon="11.0291190"><ele>0.0</ele><time>2024-06-12T04:46:28.200Z</time></trkpt>
   <trkpt lat="46.5059067" lon="11.0291955"><ele>0.0</ele><time>2024-06-12T04:46:28.400Z</time></trkpt>
   <trkpt lat="46.5058996" lon="11.0292723"><ele>0.0</ele><time>2024-06-12T04:46:28.600Z</time></trkpt>
   <trkpt lat="46.5058939" lon="11.0293494"><ele>0.0</ele><time>2024-06-12T04:46:28.800Z</time></trkpt>
   <trkpt lat="46.5058896" lon="11.0294266"><ele>0.0</ele><time>2024-06-12T04:46:29.000Z</time></trkpt>
   <trkpt lat="46.5058868" lon="11.0295040"><ele>0.0</ele><time>2024-06-12T04:46:29.200Z</time></trkpt>
   <trkpt lat="46.5058854" lon="11.0295815"><ele>0.0</ele><time>2024-06-12T04:46:29.400Z</time></trkpt>
   <trkpt lat="46.5058854" lon="11.0296590"><ele>0.0</ele><time>2024-06-12T04:46:29.600Z</time></trkpt>
   <trkpt lat="46.5058869" lon="11.0297365"><ele>0.0</ele><time>2024-06-12T04:46:29.800Z</time></trkpt>
   <trkpt lat="46.5058898" lon="11.0298139"><ele>0.0</ele><time>2024-06-12T04:46:30.000Z</time></trkpt>
   <trkpt lat="46.5058942" lon="11.0298912"><ele>0.0</ele><time>2024-06-12T04:46:30.200Z</time></trkpt>
   <trkpt lat="46.5059000" lon="11.0299682"><ele>0.0</ele><time>2024-06-12T04:46:30.400Z</time></trkpt>
   <trkpt lat="46.5059072" lon="11.0300450"><ele>0.0</ele><time>2024-06-12T04:46:30.600Z</time></trkpt>
   <trkpt lat="46.5059158" lon="11.0301215"><ele>0.0</ele><time>2024-06-12T04:46:30.800Z</time></trkpt>
   <trkpt lat="46.5059259" lon="11.0301976"><ele>0.0</ele><time>2024-06-12T04:46:31.000Z</time></trkpt>
   <trkpt lat="46.5059373" lon="11.0302734"><ele>0.0</ele><time>2024-06-12T04:46:31.200Z</time></trkpt>
   <trkpt lat="46.5059502" lon="11.0303486"><ele>0.0</ele><time>2024-06-12T04:46:31.400Z</time></trkpt>
   <trkpt lat="46.5059644" lon="11.0304233"><ele>0.0</ele><time>2024-06-12T04:46:31.600Z</time></trkpt>
   <trkpt lat="46.5059801" lon="11.0304974"><ele>0.0</ele><time>2024-06-12T04:46:31.800Z</time></trkpt>
   <trkpt lat="46.5059971" lon="11.0305709"><ele>0.0</ele><time>2024-06-12T04:46:32.000Z</time></trkpt>
   <trkpt lat="46.5060154" lon="11.0306436"><ele>0.0</ele><time>2024-06-12T04:46:32.200Z</time></trkpt>
   <trkpt lat="46.5060352" lon="11.0307157"><ele>0.0</ele><time>2024-06-12T04:46:32.400Z</time></trkpt>
   <trkpt lat="46.5060562" lon="11.0307869"><ele>0.0</ele><time>2024-06-12T04:46:32.600Z</time></trkpt>
   <trkpt lat="46.5060785" lon="11.0308573"><ele>0.0</ele><time>2024-06-12T04:46:32.800Z</time></trkpt>
   <trkpt lat="46.5061022" lon="11.0309268"><ele>0.0</ele><time>2024-06-12T04:46:33.000Z</time></trkpt>
   <trkpt lat="46.5061271" lon="11.0309953"><ele>0.0</ele><time>2024-06-12T04:46:33.200Z</time></trkpt>
   <trkpt lat="46.5061533" lon="11.0310628"><ele>0.0</ele><time>2024-06-12T04:46:33.400Z</time></trkpt>
   <trkpt lat="46.5061808" lon="11.0311293"><ele>0.0</ele><time>2024-06-12T04:46:33.600Z</time></trkpt>
   <trkpt lat="46.5062094" lon="11.0311947"><ele>0.0</ele><time>2024-06-12T04:46:33.800Z</time></trkpt>
   <trkpt lat="46.5062393" lon="11.0312589"><ele>0.0</ele><time>2024-06-12T04:46:34.000Z</time></trkpt>
   <trkpt lat="46.5062703" lon="11.0313220"><ele>0.0</ele><time>2024-06-12T04:46:34.200Z</time></trkpt>
   <trkpt lat="46.5063025" lon="11.0313838"><ele>0.0</ele><time>2024-06-12T04:46:34.400Z</time></trkpt>
   <trkpt lat="46.5063359" lon="11.0314443"><ele>0.0</ele><time>2024-06-12T04:46:34.600Z</time></trkpt>
   <trkpt lat="46.5063703" lon="11.0315035"><ele>0.0</ele><time>2024-06-12T04:46:34.800Z</time></trkpt>
   <trkpt lat="46.5064059" lon="11.0315613"><ele>0.0</ele><time>2024-06-12T04:46:35.000Z</time></trkpt>
   <trkpt lat="46.5064425" lon="11.0316177"><ele>0.0</ele><time>2024-06-12T04:46:35.200Z</time></trkpt>
   <trkpt lat="46.5064801" lon="11.0316726"><ele>0.0</ele><time>2024-06-12T04:46:35.400Z</time></trkpt>
   <trkpt lat="46.5065187" lon="11.0317261"><ele>0.0</ele><time>2024-06-12T04:46:35.600Z</time></trkpt>
   <trkpt lat="46.5065583" lon="11.0317780"><ele>0.0</ele><time>2024-06-12T04:46:35.800Z</time></trkpt>
   <trkpt lat="46.5065920" lon="11.0318200"><ele>0.0</ele><time>2024-06-12T04:46:36.000Z</time></trkpt>
   <trkpt lat="46.5066292" lon="11.0318653"><ele>0.0</ele><time>2024-06-12T04:46:36.200Z</time></trkpt>
   <trkpt lat="46.5066664" lon="11.0319107"><ele>0.0</ele><time>2024-06-12T04:46:36.400Z</time></trkpt>
   <trkpt lat="46.5067036" lon="11.0319560"><ele>0.0</ele><time>2024-06-12T04:46:36.600Z</time></trkpt>
   <trkpt lat="46.5067408" lon="11.0320014"><ele>0.0</ele><time>2024-06-12T04:46:36.800Z</time></trkpt>
   <trkpt lat="46.5067780" lon="11.0320467"><ele>0.0</ele><time>2024-06-12T04:46:37.000Z</time></trkpt>
   <trkpt lat="46.5068152" lon="11.0320921"><ele>0.0</ele><time>2024-06-12T04:46:37.200Z</time></trkpt>
   <trkpt lat="46.5068524" lon="11.0321374"><ele>0.0</ele><time>2024-06-12T04:46:37.400Z</time></trkpt>
   <trkpt lat="46.5068896" lon="11.0321828"><ele>0.0</ele><time>2024-06-12T04:46:37.600Z</time></trkpt>
   <trkpt lat="46.5069268" lon="11.0322281"><ele>0.0</ele><time>2024-06-12T04:46:37.800Z</time></trkpt>
   <trkpt lat="46.5069640" lon="11.0322735"><ele>0.0</ele><time>2024-06-12T04:46:38.000Z</time></trkpt>
   <trkpt lat="46.5070012" lon="11.0323188"><ele>0.0</ele><time>2024-06-12T04:46:38.200Z</time></trkpt>
   <trkpt lat="46.5070384" lon="11.0323642"><ele>0.0</ele><time>2024-06-12T04:46:38.400Z</time></trkpt>
   <trkpt lat="46.5070756" lon="11.0324095"><ele>0.0</ele><time>2024-06-12T04:46:38.600Z</time></trkpt>
   <trkpt lat="46.5071128" lon="11.0324549"><ele>0.0</ele><time>2024-06-12T04:46:38.800Z</time></trkpt>
   <trkpt lat="46.5071431" lon="11.0324918"><ele>0.0</ele><time>2024-06-12T04:46:39.000Z</time></trkpt>
   <trkpt lat="46.5071803" lon="11.0325372"><ele>0.0</ele><time>2024-06-12T04:46:39.200Z</time></trkpt>
   <trkpt lat="46.5072175" lon="11.0325825"><ele>0.0</ele><time>2024-06-12T04:46:39.400Z</time></trkpt>
   <trkpt lat="46.5072547" lon="11.0326279"><ele>0.0</ele><time>2024-06-12T04:46:39.600Z</time></trkpt>
   <trkpt lat="46.5072919" lon="11.0326732"><ele>0.0</ele><time>2024-06-12T04:46:39.800Z</time></trkpt>
   <trkpt lat="46.5073291" lon="11.0327185"><ele>0.0</ele><time>2024-06-12T04:46:40.000Z</time></trkpt>
   <trkpt lat="46.5073663" lon="11.0327639"><ele>0.0</ele><time>2024-06-12T04:46:40.200Z</time></trkpt>
   <trkpt lat="46.5074035" lon="11.0328092"><ele>0.0</ele><time>2024-06-12T04:46:40.400Z</time></trkpt>
   <trkpt lat="46.5074407" lon="11.0328546"><ele>0.0</ele><time>2024-06-12T04:46:40.600Z</time></trkpt>
   <trkpt lat="46.5074779" lon="11.0328999"><ele>0.0</ele><time>2024-06-12T04:46:40.800Z</time></trkpt>
   <trkpt lat="46.5075151" lon="11.0329453"><ele>0.0</ele><time>2024-06-12T04:46:41.000Z</time></trkpt>
   <trkpt lat="46.5075523" lon="11.0329906"><ele>0.0</ele><time>2024-06-12T04:46:41.200Z</time></trkpt>
   <trkpt lat="46.5075895" lon="11.0330360"><ele>0.0</ele><time>2024-06-12T04:46:41.400Z</time></trkpt>
   <trkpt lat="46.5076268" lon="11.0330813"><ele>0.0</ele><time>2024-06-12T04:46:41.600Z</time></trkpt>
   <trkpt lat="46.5076640" lon="11.0331267"><ele>0.0</ele><time>2024-06-12T04:46:41.800Z</time></trkpt>
   <trkpt lat="46.5077012" lon="11.0331720"><ele>0.0</ele><time>2024-06-12T04:46:42.000Z</time></trkpt>
   <trkpt lat="46.5077384" lon="11.0332174"><ele>0.0</ele><time>2024-06-12T04:46:42.200Z</time></trkpt>
   <trkpt lat="46.5077756" lon="11.0332627"><ele>0.0</ele><time>2024-06-12T04:46:42.400Z</time></trkpt>
   <trkpt lat="46.5078128" lon="11.0333081"><ele>0.0</ele><time>2024-06-12T04:46:42.600Z</time></trkpt>
   <trkpt lat="46.5078500" lon="11.0333534"><ele>0.0</ele><time>2024-06-12T04:46:42.800Z</time></trkpt>
   <trkpt lat="46.5078872" lon="11.0333988"><ele>0.0</ele><time>2024-06-12T04:46:43.000Z</time></trkpt>
   <trkpt lat="46.5079244" lon="11.0334441"><ele>0.0</ele><time>2024-06-12T04:46:43.200Z</time></trkpt>
   <trkpt lat="46.5079616" lon="11.0334895"><ele>0.0</ele><time>2024-06-12T04:46:43.400Z</time></trkpt>
   <trkpt lat="46.5079988" lon="11.0335348"><ele>0.0</ele><time>2024-06-12T04:46:43.600Z</time></trkpt>
   <trkpt lat="46.5080360" lon="11.0335802"><ele>0.0</ele><time>2024-06-12T04:46:43.800Z</time></trkpt>
   <trkpt lat="46.5080732" lon="11.0336255"><ele>0.0</ele><time>2024-06-12T04:46:44.000Z</time></trkpt>
   <trkpt lat="46.5081104" lon="11.0336709"><ele>0.0</ele><time>2024-06-12T04:46:44.200Z</time></trkpt>
   <trkpt lat="46.5081476" lon="11.0337162"><ele>0.0</ele><time>2024-06-12T04:46:44.400Z</time></trkpt>
   <trkpt lat="46.5081848" lon="11.0337616"><ele>0.0</ele><time>2024-06-12T04:46:44.600Z</time></trkpt>
   <trkpt lat="46.5082220" lon="11.0338069"><ele>0.0</ele><time>2024-06-12T04:46:44.800Z</time></trkpt>
   <trkpt lat="46.5082592" lon="11.0338523"><ele>0.0</ele><time>2024-06-12T04:46:45.000Z</time></trkpt>
   <trkpt lat="46.5082964" lon="11.0338976"><ele>0.0</ele><time>2024-06-12T04:46:45.200Z</time></trkpt>
   <trkpt lat="46.5083336" lon="11.0339430"><ele>0.0</ele><time>2024-06-12T04:46:45.400Z</time></trkpt>
   <trkpt lat="46.5083708" lon="11.0339883"><ele>0.0</ele><time>2024-06-12T04:46:45.600Z</time></trkpt>
   <trkpt lat="46.5084080" lon="11.0340337"><ele>0.0</ele><time>2024-06-12T04:46:45.800Z</time></trkpt>
   <trkpt lat="46.5084452" lon="11.0340790"><ele>0.0</ele><time>2024-06-12T04:46:46.000Z</time></trkpt>
   <trkpt lat="46.5084824" lon="11.0341244"><ele>0.0</ele><time>2024-06-12T04:46:46.200Z</time></trkpt>
   <trkpt lat="46.5085196" lon="11.0341697"><ele>0.0</ele><time>2024-06-12T04:46:46.400Z</time></trkpt>
   <trkpt lat="46.5085568" lon="11.0342150"><ele>0.0</ele><time>2024-06-12T04:46:46.600Z</time></trkpt>
   <trkpt lat="46.5085940" lon="11.0342604"><ele>0.0</ele><time>2024-06-12T04:46:46.800Z</time></trkpt>
   <trkpt lat="46.5086312" lon="11.0343057"><ele>0.0</ele><time>2024-06-12T04:46:47.000Z</time></trkpt>
   <trkpt lat="46.5086684" lon="11.0343511"><ele>0.0</ele><time>2024-06-12T04:46:47.200Z</time></trkpt>
   <trkpt lat="46.5087056" lon="11.0343964"><ele>0.0</ele><time>2024-06-12T04:46:47.400Z</time></trkpt>
   <trkpt lat="46.5087428" lon="11.0344418"><ele>0.0</ele><time>2024-06-12T04:46:47.600Z</time></trkpt>
   <trkpt lat="46.5087800" lon="11.0344871"><ele>0.0</ele><time>2024-06-12T04:46:47.800Z</time></trkpt>
   <trkpt lat="46.5088172" lon="11.0345325"><ele>0.0</ele><time>2024-06-12T04:46:48.000Z</time></trkpt>
   <trkpt lat="46.5088544" lon="11.0345778"><ele>0.0</ele><time>2024-06-12T04:46:48.200Z</time></trkpt>
   <trkpt lat="46.5088916" lon="11.0346232"><ele>0.0</ele><time>2024-06-12T04:46:48.400Z</time></trkpt>
   <trkpt lat="46.5089288" lon="11.0346685"><ele>0.0</ele><time>2024-06-12T04:46:48.600Z</time></trkpt>
   <trkpt lat="46.5089660" lon="11.0347139"><ele>0.0</ele><time>2024-06-12T04:46:48.800Z</time></trkpt>
   <trkpt lat="46.5090032" lon="11.0347592"><ele>0.0</ele><time>2024-06-12T04:46:49.000Z</time></trkpt>
   <trkpt lat="46.5090404" lon="11.0348046"><ele>0.0</ele><time>2024-06-12T04:46:49.200Z</time></trkpt>
   <trkpt lat="46.5090776" lon="11.0348499"><ele>0.0</ele><time>2024-06-12T04:46:49.400Z</time></trkpt>
   <trkpt lat="46.5091148" lon="11.0348953"><ele>0.0</ele><time>2024-06-12T04:46:49.600Z</time></trkpt>
   <trkpt lat="46.5091520" lon="11.0349406"><ele>0.0</ele><time>2024-06-12T04:46:49.800Z</time></trkpt>
   <trkpt lat="46.5091892" lon="11.0349860"><ele>0.0</ele><time>2024-06-12T04:46:50.000Z</time></trkpt>
   <trkpt lat="46.5092264" lon="11.0350313"><ele>0.0</ele><time>2024-06-12T04:46:50.200Z</time></trkpt>
   <trkpt lat="46.5092636" lon="11.0350767"><ele>0.0</ele><time>2024-06-12T04:46:50.400Z</time></trkpt>
   <trkpt lat="46.5093008" lon="11.0351220"><ele>0.0</ele><time>2024-06-12T04:46:50.600Z</time></trkpt>
   <trkpt lat="46.5093380" lon="11.0351674"><ele>0.0</ele><time>2024-06-12T04:46:50.800Z</time></trkpt>
   <trkpt lat="46.5093752" lon="11.0352127"><ele>0.0</ele><time>2024-06-12T04:46:51.000Z</time></trkpt>
   <trkpt lat="46.5094124" lon="11.0352581"><ele>0.0</ele><time>2024-06-12T04:46:51.200Z</time></trkpt>
   <trkpt lat="46.5094496" lon="11.0353034"><ele>0.0</ele><time>2024-06-12T04:46:51.400Z</time></trkpt>
   <trkpt lat="46.5094868" lon="11.0353488"><ele>0.0</ele><time>2024-06-12T04:46:51.600Z</time></trkpt>
   <trkpt lat="46.5095240" lon="11.0353941"><ele>0.0</ele><time>2024-06-12T04:46:51.800Z</time></trkpt>
   <trkpt lat="46.5095612" lon="11.0354395"><ele>0.0</ele><time>2024-06-12T04:46:52.000Z</time></trkpt>
   <trkpt lat="46.5095984" lon="11.0354848"><ele>0.0</ele><time>2024-06-12T04:46:52.200Z</time></trkpt>
   <trkpt lat="46.5096356" lon="11.0355302"><ele>0.0</ele><time>2024-06-12T04:46:52.400Z</time></trkpt>
   <trkpt lat="46.5096728" lon="11.0355755"><ele>0.0</ele><time>2024-06-12T04:46:52.600Z</time></trkpt>
   <trkpt lat="46.5097100" lon="11.0356209"><ele>0.0</ele><time>2024-06-12T04:46:52.800Z</time></trkpt>
   <trkpt lat="46.5097472" lon="11.0356662"><ele>0.0</ele><time>2024-06-12T04:46:53.000Z</time></trkpt>
   <trkpt lat="46.5097844" lon="11.0357116"><ele>0.0</ele><time>2024-06-12T04:46:53.200Z</time></trkpt>
   <trkpt lat="46.5098216" lon="11.0357569"><ele>0.0</ele><time>2024-06-12T04:46:53.400Z</time></trkpt>
   <trkpt lat="46.5098589" lon="11.0358022"><ele>0.0</ele><time>2024-06-12T04:46:53.600Z</time></trkpt>
   <trkpt lat="46.5098961" lon="11.0358476"><ele>0.0</ele><time>2024-06-12T04:46:53.800Z</time></trkpt>
   <trkpt lat="46.5098988" lon="11.0358510"><ele>0.0</ele><time>2024-06-12T04:46:54.000Z</time></trkpt>
  </trkseg>
 </trk>
</gpx>
